[{"OBJECT_NAME":"ICEYE-X26","OBJECT_ID":"2023-084AF","EPOCH":"2026-03-09T22:36:43.632288","MEAN_MOTION":15.73279775,"ECCENTRICITY":9.181e-5,"INCLINATION":97.5771,"RA_OF_ASC_NODE":224.5701,"ARG_OF_PERICENTER":250.447,"MEAN_ANOMALY":109.6694,"EPHEMERIS_TYPE":0,"CLASSIFICATION_TYPE":"U","NORAD_CAT_ID":56961,"ELEMENT_SET_NO":999,"REV_AT_EPOCH":15354,"BSTAR":0.00052391916,"MEAN_MOTION_DOT":0.00072488,"MEAN_MOTION_DDOT":0},{"OBJECT_NAME":"STARLINK-11262 [DTC]","OBJECT_ID":"2024-213B","EPOCH":"2026-03-09T04:40:49.080864","MEAN_MOTION":15.69681129,"ECCENTRICITY":0.00015575,"INCLINATION":53.158,"RA_OF_ASC_NODE":43.9857,"ARG_OF_PERICENTER":70.8478,"MEAN_ANOMALY":289.2708,"EPHEMERIS_TYPE":0,"CLASSIFICATION_TYPE":"U","NORAD_CAT_ID":62009,"ELEMENT_SET_NO":999,"REV_AT_EPOCH":7483,"BSTAR":0.0024809107,"MEAN_MOTION_DOT":0.00311143,"MEAN_MOTION_DDOT":0}]
